GPS BIIR-2  (PRN 13)    
1 24876U 97035A   25207.12985988 -.00000017  00000+0  00000+0 0  9994
2 24876  55.8244 111.3312 0093238  55.0727 305.8349  2.00562552205219
GPS BIIR-4  (PRN 20)    
1 26360U 00025A   25207.16112387 -.00000083  00000+0  00000+0 0  9999
2 26360  54.9619  32.4792 0035690 232.6902 237.7853  2.00578296184723
GPS BIIR-5  (PRN 22)    
1 26407U 00040A   25206.46914691  .00000037  00000+0  00000+0 0  9996
2 26407  54.9296 228.1418 0132476 299.0531 233.9192  2.00566318183398
GPS BIIR-8  (PRN 16)    
1 27663U 03005A   25206.11881375  .00000041  00000+0  00000+0 0  9994
2 27663  54.9639 227.9659 0142750  50.3166   5.7005  2.00552089164753
GPS BIIR-11 (PRN 19)    
1 28190U 04009A   25206.34317086 -.00000040  00000+0  00000+0 0  9993
2 28190  55.1033 288.8761 0106800 163.1962 215.5481  2.00566126156390
GPS BIIR-13 (PRN 02)    
1 28474U 04045A   25205.68636891 -.00000109  00000+0  00000+0 0  9998
2 28474  55.3067 338.0766 0166107 304.7146  18.8261  2.00563065151855
GPS BIIRM-1 (PRN 17)    
1 28874U 05038A   25206.29413545 -.00000035  00000+0  00000+0 0  9990
2 28874  55.1482 286.3537 0133092 290.4850  76.2661  2.00557587145283
GPS BIIRM-2 (PRN 31)    
1 29486U 06042A   25206.93581762  .00000003  00000+0  00000+0 0  9998
2 29486  54.6874 164.2865 0104869  47.5318 324.1318  2.00560327138002
GPS BIIRM-3 (PRN 12)    
1 29601U 06052A   25205.35388350  .00000052  00000+0  00000+0 0  9995
2 29601  55.0068 227.0047 0084634  86.7987 274.2238  2.00565368136830
GPS BIIRM-4 (PRN 15)    
1 32260U 07047A   25206.65615620 -.00000030  00000+0  00000+0 0  9999
2 32260  53.8526  93.5463 0163008  82.4135 279.4949  2.00570335130266
GPS BIIRM-5 (PRN 29)    
1 32384U 07062A   25205.44287513 -.00000033  00000+0  00000+0 0  9998
2 32384  55.2970 287.3118 0032635 160.6867 171.7551  2.00570270128936
GPS BIIRM-6 (PRN 07)    
1 32711U 08012A   25206.07421334 -.00000003  00000+0  00000+0 0  9996
2 32711  54.4669 162.9869 0200220 243.7981 114.0882  2.00559757127195
GPS BIIRM-8 (PRN 05)    
1 35752U 09043A   25207.56283528 -.00000074  00000+0  00000+0 0  9993
2 35752  55.9941  40.2671 0055722  79.9804 290.1883  2.00573572116814
GPS BIIF-1  (PRN 25)    
1 36585U 10022A   25206.13492178  .00000040  00000+0  00000+0 0  9994
2 36585  54.3326 221.7391 0120790  64.0888 115.9826  2.00571874111032
GPS BIIF-3  (PRN 24)    
1 38833U 12053A   25207.25028827  .00000000  00000+0  00000+0 0  9994
2 38833  53.5426 156.9500 0168315  61.2958 300.3430  2.00563485 93797
GPS BIIF-4  (PRN 27)    
1 39166U 13023A   25207.11440845 -.00000033  00000+0  00000+0 0  9992
2 39166  54.7645 282.2418 0132708  48.1700 313.0281  2.00565777 89336
GPS BIIF-5  (PRN 30)    
1 39533U 14008A   25206.11541682 -.00000004  00000+0  00000+0 0  9992
2 39533  53.6194 162.6577 0078737 226.3249 132.9765  2.00565982 83121
GPS BIIF-6  (PRN 06)    
1 39741U 14026A   25207.39082396 -.00000109  00000+0  00000+0 0  9992
2 39741  56.6347 344.1933 0034773 318.7510  40.9834  2.00571306 81992
GPS BIIF-7  (PRN 09)    
1 40105U 14045A   25204.98819739 -.00000036  00000+0  00000+0 0  9999
2 40105  55.1377 101.5561 0030886 115.9213 244.4374  2.00563614 79490
GPS BIIF-8  (PRN 03)    
1 40294U 14068A   25205.85645581 -.00000060  00000+0  00000+0 0  9999
2 40294  56.7528  43.5912 0061946  68.2689 292.4478  2.00556145 78642
GPS BIIF-9  (PRN 26)    
1 40534U 15013A   25206.99019742  .00000030  00000+0  00000+0 0  9993
2 40534  53.2301 217.6714 0099899  35.3924 325.2909  2.00570862 75709
GPS BIIF-10 (PRN 08)    
1 40730U 15033A   25206.15554571 -.00000025  00000+0  00000+0 0  9990
2 40730  54.2448 280.5550 0104281  25.2456 335.3352  2.00572672 73430
GPS BIIF-11 (PRN 10)    
1 41019U 15062A   25204.71610743 -.00000056  00000+0  00000+0 0  9991
2 41019  56.7280  43.4914 0104407 227.9095 131.2546  2.00566919 71244
GPS BIIF-12 (PRN 32)    
1 41328U 16007A   25205.79515042 -.00000029  00000+0  00000+0 0  9999
2 41328  55.3192 102.4525 0087958 242.7970 116.3477  2.00567885 69276
GPS BIII-1  (PRN 04)    
1 43873U 18109A   25206.69141885 -.00000023  00000+0  00000+0 0  9995
2 43873  55.4843 105.0787 0033958 195.7694 344.8236  2.00572326 48529
GPS BIII-2  (PRN 18)    
1 44506U 19056A   25206.81977737 -.00000110  00000+0  00000+0 0  9995
2 44506  55.7714 344.1042 0054631 193.9467 337.2755  2.00562795 43528
GPS BIII-3  (PRN 23)    
1 45854U 20041A   25205.90179556 -.00000063  00000+0  00000+0 0  9997
2 45854  56.4442  41.6671 0055061 199.0504 333.9826  2.00565553 37468
GPS BIII-4  (PRN 14)    
1 46826U 20078A   25206.70122712  .00000034  00000+0  00000+0 0  9995
2 46826  54.0518 224.0209 0061586 202.9353 155.3360  2.00558611 34952
GPS BIII-5  (PRN 11)    
1 48859U 21054A   25206.69082708 -.00000111  00000+0  00000+0 0  9993
2 48859  55.3045 345.5740 0021369 226.0360 315.8575  2.00561288 30207
GPS BIII-6  (PRN 28)    
1 55268U 23009A   25204.89159469 -.00000005  00000+0  00000+0 0  9998
2 55268  55.0980 161.4147 0003889 331.0491  31.4812  2.00566348 18651
GPS BIII-7  (PRN 01)    
1 62339U 24242A   25206.02449453 -.00000111  00000+0  00000+0 0  9995
2 62339  54.9650 347.4369 0006217 347.0216 189.7421  2.00559124  4698
GPS BIII-8  (PRN 21)    
1 64202U 25116A   25205.76919042 -.00000064  00000+0  00000+0 0  9990
2 64202  55.0009  44.3317 0001359 304.6684 237.9284  2.00568175  1297
